{
  "type": "FeatureCollection",
  "features": [
    {
      "type": "Feature",
      "geometry": {
        "type": "Polygon",
        "coordinates": [[
          [120.59300, 16.41550],
          [120.59750, 16.41600],
          [120.60050, 16.41350],
          [120.60000, 16.40950],
          [120.59650, 16.40800],
          [120.59250, 16.40950],
          [120.59150, 16.41250],
          [120.59300, 16.41550]
        ]]
      },
      "properties": { "name": "Central Business District (Session)" }
    },
    {
      "type": "Feature",
      "geometry": {
        "type": "Polygon",
        "coordinates": [[
          [120.58950, 16.41350],
          [120.59300, 16.41400],
          [120.59500, 16.41150],
          [120.59450, 16.40750],
          [120.59100, 16.40600],
          [120.58750, 16.40800],
          [120.58800, 16.41150],
          [120.58950, 16.41350]
        ]]
      },
      "properties": { "name": "Burnham Park" }
    },
    {
      "type": "Feature",
      "geometry": {
        "type": "Polygon",
        "coordinates": [[
          [120.60900, 16.40650],
          [120.61700, 16.40800],
          [120.62450, 16.40450],
          [120.62500, 16.39700],
          [120.61900, 16.39250],
          [120.61050, 16.39400],
          [120.60700, 16.39950],
          [120.60900, 16.40650]
        ]]
      },
      "properties": { "name": "Camp John Hay" }
    },
    {
      "type": "Feature",
      "geometry": {
        "type": "Polygon",
        "coordinates": [[
          [120.61800, 16.42600],
          [120.62550, 16.42700],
          [120.63050, 16.42200],
          [120.62900, 16.41500],
          [120.62300, 16.41200],
          [120.61700, 16.41500],
          [120.61600, 16.42150],
          [120.61800, 16.42600]
        ]]
      },
      "properties": { "name": "Mines View / Gibraltar" }
    },
    {
      "type": "Feature",
      "geometry": {
        "type": "Polygon",
        "coordinates": [[
          [120.60050, 16.43100],
          [120.60900, 16.43200],
          [120.61350, 16.42750],
          [120.61250, 16.42050],
          [120.60600, 16.41800],
          [120.60000, 16.42050],
          [120.59850, 16.42650],
          [120.60050, 16.43100]
        ]]
      },
      "properties": { "name": "Aurora Hill" }
    },
    {
      "type": "Feature",
      "geometry": {
        "type": "Polygon",
        "coordinates": [[
          [120.57600, 16.41450],
          [120.58350, 16.41500],
          [120.58800, 16.41050],
          [120.58700, 16.40400],
          [120.58050, 16.40150],
          [120.57450, 16.40450],
          [120.57350, 16.41000],
          [120.57600, 16.41450]
        ]]
      },
      "properties": { "name": "Dominican - Lourdes" }
    },
    {
      "type": "Feature",
      "geometry": {
        "type": "Polygon",
        "coordinates": [[
          [120.61200, 16.38000],
          [120.62100, 16.38100],
          [120.62800, 16.37500],
          [120.62700, 16.36400],
          [120.61900, 16.35900],
          [120.61050, 16.36200],
          [120.60850, 16.37200],
          [120.61200, 16.38000]
        ]]
      },
      "properties": { "name": "Loakan" }
    }
  ]
}
