{
  "type": "FeatureCollection",
  "features": [
    {
      "type": "Feature",
      "geometry": {
        "type": "LineString",
        "coordinates": [
          [120.59676, 16.41076],
          [120.59705, 16.41103],
          [120.59711, 16.4111],
          [120.59726, 16.41098],
          [120.59729, 16.41094],
          [120.59731, 16.4109],
          [120.59732, 16.41085],
          [120.59743, 16.41087],
          [120.5975, 16.41089],
          [120.59753, 16.4109],
          [120.59756, 16.41091],
          [120.59756, 16.41091],
          [120.59759, 16.41093],
          [120.59763, 16.41096],
          [120.59765, 16.41099],
          [120.59766, 16.41102],
          [120.59767, 16.41105],
          [120.59766, 16.41109],
          [120.59765, 16.41113],
          [120.59744, 16.41133],
          [120.59741, 16.41135],
          [120.59733, 16.41134],
          [120.59731, 16.41145],
          [120.59722, 16.41192],
          [120.59718, 16.4121],
          [120.59718, 16.41212],
          [120.59716, 16.41222],
          [120.59713, 16.4124],
          [120.59707, 16.41268],
          [120.59706, 16.41273],
          [120.59713, 16.4128],
          [120.59763, 16.41237],
          [120.59769, 16.41232],
          [120.59831, 16.41183],
          [120.59835, 16.41179],
          [120.59864, 16.41157],
          [120.59879, 16.41144],
          [120.59886, 16.41143],
          [120.59892, 16.41136],
          [120.59896, 16.41132],
          [120.59912, 16.41115],
          [120.59917, 16.41111],
          [120.59917, 16.41106],
          [120.59937, 16.41083],
          [120.59939, 16.41077],
          [120.59946, 16.41057],
          [120.5995, 16.41048],
          [120.59954, 16.41038],
          [120.59957, 16.41032],
          [120.5996, 16.41024],
          [120.59966, 16.41006],
          [120.59966, 16.41005],
          [120.59975, 16.40987],
          [120.59979, 16.40979],
          [120.59983, 16.40971],
          [120.59994, 16.4094],
          [120.59996, 16.40934],
          [120.59997, 16.40928],
          [120.59998, 16.40923],
          [120.60001, 16.40912],
          [120.60002, 16.40909],
          [120.60004, 16.40904],
          [120.60007, 16.40896],
          [120.60009, 16.40892],
          [120.60009, 16.40887],
          [120.60009, 16.4088],
          [120.60009, 16.40862],
          [120.60009, 16.40855],
          [120.60009, 16.40845],
          [120.6001, 16.40835],
          [120.6001, 16.40832],
          [120.60012, 16.40828],
          [120.60015, 16.40824],
          [120.60019, 16.40821],
          [120.60018, 16.40816],
          [120.60018, 16.40811],
          [120.60018, 16.40806],
          [120.6002, 16.408],
          [120.60023, 16.40789],
          [120.60026, 16.40781],
          [120.60027, 16.40777],
          [120.60038, 16.40751],
          [120.60042, 16.40741],
          [120.60048, 16.40737],
          [120.60051, 16.40737],
          [120.60054, 16.40737],
          [120.60057, 16.40739],
          [120.60058, 16.40741],
          [120.60063, 16.40747],
          [120.60065, 16.40759],
          [120.60066, 16.40764],
          [120.60067, 16.40772],
          [120.60069, 16.40781],
          [120.60071, 16.40789],
          [120.60073, 16.40798],
          [120.60076, 16.40804],
          [120.60078, 16.40809],
          [120.60081, 16.40814],
          [120.60085, 16.40819],
          [120.6009, 16.40824],
          [120.60095, 16.4083],
          [120.60099, 16.40834],
          [120.60107, 16.40842],
          [120.60111, 16.40845],
          [120.60116, 16.40849],
          [120.60124, 16.40854],
          [120.60135, 16.40858],
          [120.60146, 16.40865],
          [120.60153, 16.40868],
          [120.60158, 16.40872],
          [120.60163, 16.40876],
          [120.60167, 16.4088],
          [120.60176, 16.40889],
          [120.60183, 16.40895],
          [120.6019, 16.40901],
          [120.60192, 16.40902],
          [120.60199, 16.40906],
          [120.60217, 16.40916],
          [120.60223, 16.40915],
          [120.60232, 16.40914],
          [120.60241, 16.4091],
          [120.60248, 16.40907],
          [120.60256, 16.40904],
          [120.60261, 16.40902],
          [120.60266, 16.409],
          [120.6027, 16.40899],
          [120.60275, 16.40898],
          [120.60279, 16.40899],
          [120.60284, 16.40903],
          [120.60286, 16.40904],
          [120.6029, 16.40908],
          [120.60293, 16.40913],
          [120.60299, 16.40925],
          [120.60302, 16.40931],
          [120.60307, 16.40942],
          [120.60321, 16.40969],
          [120.60328, 16.40985],
          [120.60335, 16.41007],
          [120.60337, 16.41014],
          [120.60343, 16.41036],
          [120.60352, 16.41047],
          [120.6036, 16.41056],
          [120.60364, 16.4106],
          [120.60379, 16.41072],
          [120.60422, 16.41101],
          [120.60464, 16.41132],
          [120.60473, 16.41139],
          [120.60488, 16.41151],
          [120.60517, 16.41173],
          [120.60521, 16.41177],
          [120.60537, 16.41189],
          [120.60543, 16.41195],
          [120.60546, 16.41197],
          [120.60552, 16.41203],
          [120.60579, 16.41231],
          [120.60581, 16.41233],
          [120.60584, 16.41236],
          [120.60587, 16.41239],
          [120.60602, 16.41253],
          [120.60617, 16.41266],
          [120.60627, 16.41273],
          [120.6065, 16.4129],
          [120.6066, 16.41296],
          [120.60683, 16.4131],
          [120.60693, 16.41315],
          [120.6071, 16.41324],
          [120.60738, 16.41337],
          [120.60748, 16.41343],
          [120.6075, 16.41344],
          [120.6076, 16.41351],
          [120.60768, 16.4136],
          [120.60776, 16.41368],
          [120.6078, 16.41375],
          [120.60787, 16.4139],
          [120.6079, 16.41394],
          [120.60806, 16.41417],
          [120.60811, 16.41418],
          [120.60814, 16.41416],
          [120.60847, 16.41384],
          [120.60851, 16.41391],
          [120.60853, 16.41395],
          [120.60853, 16.414],
          [120.60853, 16.41405],
          [120.60853, 16.4141],
          [120.60851, 16.41416],
          [120.60849, 16.41422],
          [120.60855, 16.41425],
          [120.60858, 16.41426],
          [120.60872, 16.41432],
          [120.60894, 16.4144],
          [120.6091, 16.41444],
          [120.60922, 16.41446],
          [120.60934, 16.41447],
          [120.60943, 16.41446],
          [120.60954, 16.41446],
          [120.60962, 16.41447],
          [120.6097, 16.4145],
          [120.60994, 16.41446],
          [120.6105, 16.41446],
          [120.61093, 16.41448],
          [120.61132, 16.41448],
          [120.61146, 16.41448],
          [120.61159, 16.41448],
          [120.61172, 16.4145],
          [120.61182, 16.41453],
          [120.61189, 16.41456],
          [120.61201, 16.41464],
          [120.61212, 16.41473],
          [120.61219, 16.41478],
          [120.61231, 16.41486],
          [120.61237, 16.41491],
          [120.61242, 16.41493],
          [120.61245, 16.41494],
          [120.61247, 16.41495],
          [120.61249, 16.41496],
          [120.61257, 16.41498],
          [120.61275, 16.41504],
          [120.61281, 16.41505],
          [120.6129, 16.41508],
          [120.61311, 16.41511],
          [120.61335, 16.41511],
          [120.61339, 16.41511],
          [120.61353, 16.41511],
          [120.61362, 16.41511],
          [120.6137, 16.41512],
          [120.61378, 16.41515],
          [120.61385, 16.41519],
          [120.61392, 16.41525],
          [120.61397, 16.41533],
          [120.61404, 16.41549],
          [120.61407, 16.41557],
          [120.61412, 16.41565],
          [120.61419, 16.41571],
          [120.61431, 16.4158],
          [120.61441, 16.41586],
          [120.61448, 16.41591],
          [120.61469, 16.41603],
          [120.61478, 16.41608],
          [120.61488, 16.41614],
          [120.6149, 16.41615],
          [120.61508, 16.41615],
          [120.61521, 16.4161],
          [120.61527, 16.41607],
          [120.61541, 16.41606],
          [120.61548, 16.41608],
          [120.61553, 16.41612],
          [120.61557, 16.41617],
          [120.61561, 16.41624],
          [120.61561, 16.41632],
          [120.6157, 16.41633],
          [120.61616, 16.41636],
          [120.61643, 16.41638],
          [120.61657, 16.4164],
          [120.61674, 16.41642],
          [120.61689, 16.41644],
          [120.61701, 16.41647],
          [120.61712, 16.4165],
          [120.61733, 16.41653],
          [120.61782, 16.41662],
          [120.61801, 16.41664],
          [120.61807, 16.41664],
          [120.61811, 16.41664],
          [120.61816, 16.41663],
          [120.61823, 16.41661],
          [120.61829, 16.41657],
          [120.61838, 16.41651],
          [120.61853, 16.41639],
          [120.61865, 16.41631],
          [120.61871, 16.41628],
          [120.61878, 16.41627],
          [120.61885, 16.41626],
          [120.61892, 16.41625],
          [120.61899, 16.41626],
          [120.61905, 16.41627],
          [120.61911, 16.41628],
          [120.61917, 16.41631],
          [120.61923, 16.41639],
          [120.61927, 16.41644],
          [120.61935, 16.41658],
          [120.61937, 16.4166],
          [120.61939, 16.41664],
          [120.61947, 16.4168],
          [120.61951, 16.41686],
          [120.61956, 16.41692],
          [120.6196, 16.41697],
          [120.61969, 16.41702],
          [120.61983, 16.41707],
          [120.62014, 16.41721],
          [120.62042, 16.41738],
          [120.6205, 16.41744],
          [120.62057, 16.41751],
          [120.62068, 16.41767],
          [120.62073, 16.41776],
          [120.62082, 16.41786],
          [120.62088, 16.41791],
          [120.62097, 16.41796],
          [120.62104, 16.41799],
          [120.62109, 16.418],
          [120.62154, 16.41802],
          [120.62164, 16.41803],
          [120.62171, 16.41804],
          [120.62216, 16.41818],
          [120.62224, 16.41821],
          [120.62233, 16.41823],
          [120.62244, 16.41823],
          [120.62262, 16.41821],
          [120.62278, 16.41821],
          [120.62286, 16.41822],
          [120.62293, 16.41823],
          [120.62302, 16.41825],
          [120.62311, 16.41828],
          [120.62316, 16.4183],
          [120.62325, 16.41834],
          [120.62345, 16.41847],
          [120.62361, 16.41858],
          [120.62375, 16.41866],
          [120.62379, 16.41868],
          [120.62381, 16.41869],
          [120.62388, 16.41869],
          [120.62396, 16.41867],
          [120.62405, 16.41865],
          [120.62412, 16.41863],
          [120.62418, 16.41862],
          [120.62424, 16.41862],
          [120.62429, 16.41863],
          [120.62432, 16.41866],
          [120.62436, 16.41871],
          [120.62438, 16.41881],
          [120.62442, 16.41907],
          [120.62444, 16.41913],
          [120.62445, 16.41916],
          [120.62446, 16.41918],
          [120.62448, 16.41922],
          [120.6245, 16.41924],
          [120.62453, 16.41926],
          [120.62465, 16.41933],
          [120.62472, 16.41936],
          [120.62476, 16.41938],
          [120.62481, 16.41941],
          [120.62483, 16.41943],
          [120.62486, 16.41944],
          [120.62488, 16.41947],
          [120.62489, 16.41949],
          [120.6249, 16.41951],
          [120.62492, 16.41954],
          [120.62495, 16.4196],
          [120.62497, 16.41969],
          [120.62501, 16.4198],
          [120.62503, 16.41987],
          [120.62508, 16.42002],
          [120.62514, 16.42013],
          [120.62516, 16.4202],
          [120.62518, 16.42025],
          [120.62517, 16.42028],
          [120.62516, 16.42034],
          [120.62512, 16.42038],
          [120.62502, 16.42045],
          [120.62486, 16.42057],
          [120.6247, 16.42073],
          [120.62466, 16.42079],
          [120.62463, 16.42084],
          [120.62462, 16.42088],
          [120.62461, 16.42096],
          [120.62462, 16.42102],
          [120.62464, 16.42107],
          [120.62468, 16.4211],
          [120.62474, 16.42111],
          [120.62478, 16.42112],
          [120.62488, 16.42112],
          [120.62494, 16.42112],
          [120.62496, 16.42112],
          [120.62506, 16.42108],
          [120.62515, 16.42105],
          [120.62524, 16.42102],
          [120.62528, 16.421],
          [120.62531, 16.42098],
          [120.62534, 16.42096],
          [120.62548, 16.42085],
          [120.62563, 16.42076],
          [120.62599, 16.42106],
          [120.62603, 16.42108],
          [120.62606, 16.42109],
          [120.62609, 16.42109],
          [120.62616, 16.42105],
          [120.62623, 16.42101],
          [120.62628, 16.42099],
          [120.62632, 16.42098],
          [120.62635, 16.42099],
          [120.6264, 16.42101],
          [120.62661, 16.42114],
          [120.62663, 16.42115],
          [120.62666, 16.42113],
          [120.62681, 16.42102],
          [120.62683, 16.42101],
          [120.62686, 16.42101],
          [120.62686, 16.42103],
          [120.62688, 16.42106],
          [120.62687, 16.42115],
          [120.62686, 16.42122],
          [120.62686, 16.42125],
          [120.62687, 16.42128],
          [120.62689, 16.4213],
          [120.62692, 16.42134],
          [120.62696, 16.42139],
          [120.62701, 16.42142],
          [120.62704, 16.42143],
          [120.62708, 16.42144],
          [120.62713, 16.42143],
          [120.62718, 16.42142],
          [120.62721, 16.42139],
          [120.6272, 16.42125],
          [120.6272, 16.42115],
          [120.62721, 16.421],
          [120.62722, 16.4209],
          [120.62723, 16.42078],
          [120.62725, 16.42072],
          [120.62727, 16.42066],
          [120.62731, 16.42061],
          [120.62735, 16.42056],
          [120.62741, 16.42051],
          [120.62746, 16.42048]
        ]
      },
      "properties": {
        "code": "PLZ-MVP",
        "name": "Plaza - Mines View Park",
        "kind": "JEEPNEY",
        "fareBase": 13,
        "farePerKm": 1.8,
        "stops": [
          {
            "name": "City Plaza Terminal",
            "seq": 1,
            "coord": [120.59676, 16.41076]
          },
          {
            "name": "Leonard Wood Road",
            "seq": 2,
            "coord": [120.60248, 16.41297]
          },
          {
            "name": "Pacdal Rotunda",
            "seq": 3,
            "coord": [120.61322, 16.41515]
          },
          {
            "name": "Gibraltar Road",
            "seq": 4,
            "coord": [120.62068, 16.41767]
          },
          {
            "name": "Mines View Park",
            "seq": 5,
            "coord": [120.62746, 16.42048]
          }
        ]
      }
    },
    {
      "type": "Feature",
      "geometry": {
        "type": "LineString",
        "coordinates": [
          [120.59676, 16.41076],
          [120.59632, 16.41033],
          [120.59626, 16.41027],
          [120.59666, 16.4099],
          [120.59709, 16.40951],
          [120.59715, 16.40945],
          [120.59717, 16.40937],
          [120.59743, 16.40877],
          [120.59765, 16.40829],
          [120.59788, 16.40785],
          [120.59794, 16.40775],
          [120.59802, 16.40759],
          [120.59807, 16.40749],
          [120.59808, 16.40746],
          [120.5981, 16.40743],
          [120.5981, 16.4074],
          [120.59811, 16.40738],
          [120.59811, 16.40735],
          [120.59811, 16.40733],
          [120.59811, 16.40731],
          [120.59811, 16.40729],
          [120.59808, 16.40722],
          [120.59802, 16.40708],
          [120.59792, 16.40697],
          [120.59776, 16.40678],
          [120.59763, 16.40664],
          [120.59729, 16.40625],
          [120.59724, 16.40614],
          [120.59722, 16.40605],
          [120.59715, 16.4058],
          [120.59708, 16.40539],
          [120.59708, 16.40533],
          [120.59709, 16.40528],
          [120.5971, 16.40525],
          [120.59711, 16.40522],
          [120.59712, 16.4052],
          [120.59714, 16.40517],
          [120.59717, 16.40515],
          [120.5977, 16.40471],
          [120.59777, 16.4047],
          [120.59786, 16.40472],
          [120.59798, 16.40475],
          [120.59808, 16.4048],
          [120.59817, 16.40485],
          [120.59821, 16.40488],
          [120.59825, 16.40492],
          [120.59829, 16.40499],
          [120.59834, 16.40512],
          [120.59838, 16.40518],
          [120.59843, 16.40522],
          [120.59848, 16.40526],
          [120.59855, 16.40527],
          [120.59863, 16.40527],
          [120.59869, 16.40526],
          [120.59879, 16.40523],
          [120.59888, 16.40519],
          [120.59896, 16.40517],
          [120.59904, 16.40516],
          [120.5991, 16.40516],
          [120.59916, 16.40517],
          [120.5992, 16.40519],
          [120.59926, 16.40525],
          [120.5993, 16.4053],
          [120.59935, 16.40537],
          [120.59945, 16.40553],
          [120.59951, 16.40563],
          [120.59959, 16.40569],
          [120.5996, 16.4057],
          [120.59966, 16.40575],
          [120.59975, 16.40584],
          [120.59985, 16.40594],
          [120.60005, 16.40607],
          [120.60021, 16.40617],
          [120.6003, 16.40621],
          [120.60036, 16.40622],
          [120.60041, 16.40622],
          [120.60043, 16.40621],
          [120.60048, 16.40618],
          [120.60063, 16.40607],
          [120.60069, 16.40605],
          [120.60075, 16.40599],
          [120.60105, 16.40572],
          [120.60117, 16.40561],
          [120.60122, 16.40557],
          [120.60126, 16.40555],
          [120.6013, 16.40555],
          [120.6013, 16.40546],
          [120.60128, 16.40539],
          [120.60125, 16.40534],
          [120.60127, 16.40531],
          [120.60131, 16.40521],
          [120.60127, 16.40531],
          [120.60125, 16.40534],
          [120.60128, 16.40539],
          [120.6013, 16.40546],
          [120.6013, 16.40555],
          [120.60134, 16.40555],
          [120.60138, 16.40556],
          [120.60145, 16.40561],
          [120.60149, 16.40563],
          [120.60154, 16.40564],
          [120.60157, 16.40564],
          [120.60161, 16.40564],
          [120.60167, 16.40556],
          [120.6018, 16.40544],
          [120.60186, 16.40538],
          [120.60196, 16.40528],
          [120.60208, 16.40515],
          [120.60216, 16.40507],
          [120.60219, 16.40503],
          [120.60228, 16.40494],
          [120.60235, 16.40489],
          [120.60237, 16.40487],
          [120.6024, 16.40486],
          [120.60245, 16.40482],
          [120.60254, 16.40478],
          [120.60255, 16.40477],
          [120.60264, 16.40473],
          [120.60278, 16.40468],
          [120.60282, 16.40467],
          [120.6035, 16.40446],
          [120.6035, 16.40446],
          [120.6039, 16.40434],
          [120.60397, 16.40433],
          [120.604, 16.40432],
          [120.60442, 16.4042],
          [120.60454, 16.40417],
          [120.60456, 16.40417],
          [120.60464, 16.40412],
          [120.60469, 16.4041],
          [120.60474, 16.40408],
          [120.60483, 16.40404],
          [120.6049, 16.40402],
          [120.60494, 16.40399],
          [120.60497, 16.40396],
          [120.60502, 16.4039],
          [120.60502, 16.40389],
          [120.60502, 16.40388],
          [120.60502, 16.40387],
          [120.60503, 16.40386],
          [120.605, 16.4038],
          [120.60499, 16.40375],
          [120.60498, 16.40367],
          [120.60497, 16.40361],
          [120.60496, 16.40356],
          [120.60496, 16.40354],
          [120.60495, 16.40353],
          [120.60509, 16.40347],
          [120.60495, 16.40353],
          [120.60496, 16.40354],
          [120.60496, 16.40356],
          [120.60497, 16.40361],
          [120.605, 16.40366],
          [120.60501, 16.40367],
          [120.60503, 16.4037],
          [120.60505, 16.40372],
          [120.60508, 16.40375],
          [120.60513, 16.40378],
          [120.60513, 16.40378],
          [120.60515, 16.40378],
          [120.60516, 16.40378],
          [120.60517, 16.40378],
          [120.60517, 16.40379],
          [120.60519, 16.40379],
          [120.60534, 16.40364],
          [120.60546, 16.40352],
          [120.60547, 16.4035],
          [120.60548, 16.40349],
          [120.60556, 16.40338],
          [120.60559, 16.40335],
          [120.60564, 16.40329],
          [120.60572, 16.4032],
          [120.60582, 16.40312],
          [120.60584, 16.40309],
          [120.60595, 16.40302],
          [120.606, 16.403],
          [120.60605, 16.40297],
          [120.60616, 16.40294],
          [120.60626, 16.40291],
          [120.60638, 16.40288],
          [120.60653, 16.40283],
          [120.60666, 16.40279],
          [120.60701, 16.4027],
          [120.60708, 16.40268],
          [120.60715, 16.40268],
          [120.6072, 16.40269],
          [120.60727, 16.40271],
          [120.60732, 16.40273],
          [120.60736, 16.40276],
          [120.6074, 16.4028],
          [120.60744, 16.40285],
          [120.60759, 16.40309],
          [120.60761, 16.40311],
          [120.60764, 16.40313],
          [120.60766, 16.40314],
          [120.60769, 16.40314],
          [120.60772, 16.40314],
          [120.60775, 16.40314],
          [120.60777, 16.40313],
          [120.6078, 16.40311],
          [120.60804, 16.4029],
          [120.6081, 16.40287],
          [120.60817, 16.40285],
          [120.60825, 16.40285],
          [120.60832, 16.40283],
          [120.60837, 16.40281],
          [120.60842, 16.40279],
          [120.60846, 16.40274],
          [120.60848, 16.4027],
          [120.60848, 16.40261],
          [120.60846, 16.40213],
          [120.60849, 16.40204],
          [120.60853, 16.40197],
          [120.60861, 16.4019],
          [120.60875, 16.40184],
          [120.60886, 16.40182],
          [120.60953, 16.4018],
          [120.60962, 16.4018],
          [120.60969, 16.40179],
          [120.60974, 16.40177],
          [120.60979, 16.40174],
          [120.60982, 16.40171],
          [120.60984, 16.40167],
          [120.60986, 16.40161],
          [120.60987, 16.40148],
          [120.60989, 16.40134],
          [120.60992, 16.40124],
          [120.60995, 16.40114],
          [120.61, 16.40106],
          [120.61006, 16.40098],
          [120.61014, 16.4009],
          [120.61021, 16.40083],
          [120.61029, 16.40079],
          [120.61039, 16.40075],
          [120.61044, 16.40071],
          [120.61046, 16.40066],
          [120.61046, 16.4006],
          [120.61046, 16.40055],
          [120.61043, 16.40051],
          [120.6104, 16.40045],
          [120.61033, 16.40039],
          [120.61026, 16.40033],
          [120.61013, 16.40025],
          [120.60999, 16.40018],
          [120.60986, 16.40013],
          [120.60975, 16.40011],
          [120.60964, 16.4001],
          [120.60954, 16.40011],
          [120.60944, 16.40012],
          [120.60937, 16.40014],
          [120.60932, 16.40017],
          [120.60927, 16.4002],
          [120.60921, 16.40024],
          [120.60916, 16.40026],
          [120.6091, 16.40027],
          [120.60905, 16.40026],
          [120.60899, 16.40024],
          [120.60892, 16.40018],
          [120.60884, 16.40011],
          [120.60879, 16.40004],
          [120.60874, 16.39994],
          [120.60869, 16.39983],
          [120.60866, 16.39974],
          [120.60862, 16.39964],
          [120.60859, 16.39952],
          [120.60854, 16.39942],
          [120.60849, 16.39934],
          [120.60844, 16.39929],
          [120.60838, 16.39925],
          [120.60831, 16.39922],
          [120.60791, 16.39903],
          [120.60788, 16.39901],
          [120.60779, 16.39898],
          [120.60772, 16.39896],
          [120.60763, 16.39895],
          [120.60753, 16.39892],
          [120.60739, 16.39886],
          [120.60747, 16.39884],
          [120.60752, 16.39883],
          [120.60761, 16.39882],
          [120.60837, 16.39883],
          [120.60841, 16.39883],
          [120.60841, 16.39883],
          [120.60844, 16.39883],
          [120.60845, 16.39883],
          [120.60849, 16.39883],
          [120.60853, 16.39884],
          [120.60865, 16.39886],
          [120.60874, 16.39889],
          [120.60886, 16.39892],
          [120.60887, 16.39892],
          [120.60899, 16.39896],
          [120.60911, 16.399],
          [120.60921, 16.39903],
          [120.6093, 16.39905],
          [120.60942, 16.39906],
          [120.60955, 16.39906],
          [120.60971, 16.39906],
          [120.60971, 16.39901],
          [120.60971, 16.39898],
          [120.60972, 16.39895],
          [120.60973, 16.39892],
          [120.60976, 16.39891],
          [120.60981, 16.3989],
          [120.60981, 16.3986],
          [120.60981, 16.3989],
          [120.61002, 16.3989],
          [120.61021, 16.3989],
          [120.61035, 16.3989],
          [120.61041, 16.39888],
          [120.61046, 16.39885],
          [120.61051, 16.39882],
          [120.61074, 16.39885],
          [120.61093, 16.39896],
          [120.611, 16.399],
          [120.61105, 16.39899],
          [120.61105, 16.39895],
          [120.61106, 16.39863],
          [120.61107, 16.39846],
          [120.61107, 16.39833],
          [120.61108, 16.39813],
          [120.61107, 16.39833],
          [120.61107, 16.39846],
          [120.61106, 16.39863],
          [120.61105, 16.39895],
          [120.61105, 16.39899],
          [120.61142, 16.39898],
          [120.61242, 16.3991],
          [120.61262, 16.39913],
          [120.61279, 16.39917],
          [120.61291, 16.39919],
          [120.61304, 16.39921],
          [120.61304, 16.39916],
          [120.61303, 16.39894],
          [120.61302, 16.39871],
          [120.61301, 16.39866],
          [120.61297, 16.39839],
          [120.613, 16.3984],
          [120.61297, 16.39839],
          [120.61301, 16.39866],
          [120.61302, 16.39871],
          [120.61303, 16.39894],
          [120.61304, 16.39916],
          [120.61304, 16.39921],
          [120.61313, 16.39924],
          [120.61343, 16.39935],
          [120.61346, 16.39935],
          [120.61375, 16.39945],
          [120.61379, 16.39947],
          [120.61384, 16.39948],
          [120.61395, 16.39952]
        ]
      },
      "properties": {
        "code": "PLZ-CJH",
        "name": "Plaza - Camp John Hay (Scout Barrio)",
        "kind": "JEEPNEY",
        "fareBase": 13,
        "farePerKm": 1.8,
        "stops": [
          {
            "name": "City Plaza Terminal",
            "seq": 1,
            "coord": [120.59676, 16.41076]
          },
          {
            "name": "Governor Pack Road",
            "seq": 2,
            "coord": [120.5986, 16.40712]
          },
          {
            "name": "Loakan Road Junction",
            "seq": 3,
            "coord": [120.6035, 16.40446]
          },
          {
            "name": "Scout Barrio",
            "seq": 4,
            "coord": [120.60868, 16.39981]
          },
          {
            "name": "Camp John Hay Gate",
            "seq": 5,
            "coord": [120.61395, 16.39952]
          }
        ]
      }
    },
    {
      "type": "Feature",
      "geometry": {
        "type": "LineString",
        "coordinates": [
          [120.59676, 16.41076],
          [120.59705, 16.41103],
          [120.59711, 16.4111],
          [120.59726, 16.41098],
          [120.59729, 16.41094],
          [120.59731, 16.4109],
          [120.59732, 16.41085],
          [120.59743, 16.41087],
          [120.59742, 16.41092],
          [120.59741, 16.41096],
          [120.59739, 16.411],
          [120.59719, 16.41119],
          [120.5971, 16.41127],
          [120.59659, 16.41174],
          [120.59656, 16.41177],
          [120.59652, 16.4118],
          [120.59647, 16.41186],
          [120.59591, 16.4124],
          [120.59579, 16.41252],
          [120.59571, 16.4126],
          [120.59563, 16.41267],
          [120.59554, 16.41275],
          [120.59534, 16.41295],
          [120.59529, 16.41299],
          [120.59517, 16.41311],
          [120.59504, 16.41323],
          [120.59487, 16.41341],
          [120.59501, 16.41355],
          [120.59536, 16.41383],
          [120.5954, 16.41388],
          [120.59545, 16.41394],
          [120.59552, 16.41407],
          [120.59553, 16.41414],
          [120.59556, 16.41428],
          [120.59558, 16.41439],
          [120.59561, 16.41449],
          [120.5957, 16.41487],
          [120.59577, 16.41512],
          [120.59584, 16.4151],
          [120.59655, 16.41488],
          [120.59662, 16.41485],
          [120.5968, 16.4148],
          [120.59662, 16.41485],
          [120.59655, 16.41488],
          [120.59584, 16.4151],
          [120.59577, 16.41512],
          [120.59585, 16.41553],
          [120.59591, 16.41551],
          [120.59595, 16.4155],
          [120.59604, 16.41548],
          [120.59613, 16.41545],
          [120.59614, 16.41551],
          [120.59622, 16.41582],
          [120.596, 16.41587],
          [120.59594, 16.41589],
          [120.59602, 16.41615],
          [120.59615, 16.41658],
          [120.59618, 16.41669],
          [120.5962, 16.41675],
          [120.59623, 16.41688],
          [120.59624, 16.41691],
          [120.59628, 16.41702],
          [120.59639, 16.41745],
          [120.59654, 16.41803],
          [120.59653, 16.4181],
          [120.59647, 16.41804],
          [120.59632, 16.41747],
          [120.59625, 16.41723],
          [120.59622, 16.41712],
          [120.59619, 16.417],
          [120.59617, 16.41693],
          [120.59616, 16.41688],
          [120.59615, 16.41685],
          [120.59614, 16.4168],
          [120.59613, 16.41674],
          [120.59581, 16.4156],
          [120.59572, 16.41528],
          [120.59549, 16.41441],
          [120.59544, 16.41423],
          [120.59543, 16.41412],
          [120.59536, 16.41383],
          [120.5954, 16.41376],
          [120.59546, 16.41371],
          [120.59555, 16.41367],
          [120.59564, 16.41363],
          [120.59566, 16.41363],
          [120.59585, 16.41355],
          [120.59589, 16.41353],
          [120.59619, 16.4134],
          [120.59621, 16.41339],
          [120.59647, 16.41324],
          [120.59657, 16.41318],
          [120.5966, 16.41316],
          [120.59688, 16.413],
          [120.59694, 16.41295],
          [120.59713, 16.4128],
          [120.59706, 16.41273],
          [120.59707, 16.41268],
          [120.59713, 16.4124],
          [120.59708, 16.41235],
          [120.597, 16.41228],
          [120.59694, 16.41223],
          [120.59693, 16.41222],
          [120.59689, 16.41218],
          [120.59686, 16.4122],
          [120.59641, 16.41261],
          [120.5962, 16.41281],
          [120.59615, 16.41287],
          [120.59605, 16.41277],
          [120.596, 16.41272],
          [120.59584, 16.41256],
          [120.59579, 16.41252],
          [120.59571, 16.41243],
          [120.59624, 16.41193],
          [120.59634, 16.41183],
          [120.59639, 16.41179],
          [120.59644, 16.41174],
          [120.59701, 16.41118],
          [120.59711, 16.4111],
          [120.59705, 16.41103],
          [120.59632, 16.41033],
          [120.59626, 16.41027],
          [120.5962, 16.41033],
          [120.5961, 16.41043],
          [120.59607, 16.41046],
          [120.59591, 16.41061],
          [120.59565, 16.41086],
          [120.59591, 16.41061],
          [120.59607, 16.41046],
          [120.5961, 16.41043],
          [120.5962, 16.41033],
          [120.59626, 16.41027],
          [120.59632, 16.41033],
          [120.59676, 16.41076]
        ]
      },
      "properties": {
        "code": "PLZ-SES",
        "name": "Plaza - Session Road / Cathedral Loop",
        "kind": "JEEPNEY",
        "fareBase": 13,
        "farePerKm": 1.8,
        "stops": [
          {
            "name": "City Plaza Terminal",
            "seq": 1,
            "coord": [120.59676, 16.41076]
          },
          {
            "name": "Lower Session Road",
            "seq": 2,
            "coord": [120.59696, 16.41294]
          },
          {
            "name": "Upper Session Road",
            "seq": 3,
            "coord": [120.5968, 16.4148]
          },
          {
            "name": "Cathedral Steps",
            "seq": 4,
            "coord": [120.59619, 16.4134]
          },
          {
            "name": "Harrison Road",
            "seq": 5,
            "coord": [120.59565, 16.41086]
          }
        ]
      }
    },
    {
      "type": "Feature",
      "geometry": {
        "type": "LineString",
        "coordinates": [
          [120.59676, 16.41076],
          [120.59705, 16.41103],
          [120.59711, 16.4111],
          [120.59726, 16.41098],
          [120.59729, 16.41094],
          [120.59731, 16.4109],
          [120.59732, 16.41085],
          [120.59743, 16.41087],
          [120.59742, 16.41092],
          [120.59741, 16.41096],
          [120.59739, 16.411],
          [120.59719, 16.41119],
          [120.5971, 16.41127],
          [120.59656, 16.41177],
          [120.59652, 16.4118],
          [120.59647, 16.41186],
          [120.59591, 16.4124],
          [120.59579, 16.41252],
          [120.59571, 16.4126],
          [120.59563, 16.41267],
          [120.59554, 16.41275],
          [120.59534, 16.41295],
          [120.59529, 16.41299],
          [120.59517, 16.41311],
          [120.59504, 16.41323],
          [120.59487, 16.41341],
          [120.59501, 16.41355],
          [120.59522, 16.41363],
          [120.59533, 16.41364],
          [120.59544, 16.41365],
          [120.59555, 16.41367],
          [120.59564, 16.41363],
          [120.59585, 16.41355],
          [120.59589, 16.41353],
          [120.59611, 16.41343],
          [120.59621, 16.41339],
          [120.59647, 16.41324],
          [120.59642, 16.41318],
          [120.59615, 16.41287],
          [120.59605, 16.41277],
          [120.596, 16.41272],
          [120.59584, 16.41256],
          [120.59579, 16.41252],
          [120.59571, 16.4126],
          [120.59563, 16.41267],
          [120.59554, 16.41275],
          [120.59534, 16.41295],
          [120.59529, 16.41299],
          [120.59517, 16.41311],
          [120.59504, 16.41323],
          [120.59487, 16.41341],
          [120.59501, 16.41355],
          [120.59536, 16.41383],
          [120.5954, 16.41388],
          [120.59545, 16.41394],
          [120.59552, 16.41407],
          [120.59553, 16.41414],
          [120.59556, 16.41428],
          [120.59558, 16.41439],
          [120.59561, 16.41449],
          [120.5957, 16.41487],
          [120.59577, 16.41512],
          [120.59585, 16.41553],
          [120.59594, 16.41589],
          [120.59602, 16.41615],
          [120.59615, 16.41658],
          [120.59618, 16.41669],
          [120.59616, 16.41674],
          [120.59614, 16.4168],
          [120.59613, 16.41682],
          [120.59611, 16.41686],
          [120.59609, 16.41689],
          [120.59604, 16.41693],
          [120.59601, 16.41695],
          [120.59569, 16.41722],
          [120.59567, 16.41723],
          [120.59549, 16.4174],
          [120.59527, 16.41756],
          [120.59521, 16.41762],
          [120.59509, 16.41773],
          [120.595, 16.41786],
          [120.59498, 16.41789],
          [120.59485, 16.41816],
          [120.59484, 16.41819],
          [120.5948, 16.41833],
          [120.59478, 16.41852],
          [120.5948, 16.41868],
          [120.59481, 16.41889],
          [120.59484, 16.41907],
          [120.59482, 16.41917],
          [120.59477, 16.41927],
          [120.59467, 16.41936],
          [120.59461, 16.4194],
          [120.59444, 16.41952],
          [120.59425, 16.41963],
          [120.59403, 16.41971],
          [120.59383, 16.41973],
          [120.59365, 16.41977],
          [120.59354, 16.4198],
          [120.59345, 16.41985],
          [120.59325, 16.41998],
          [120.59316, 16.42005],
          [120.59307, 16.42015],
          [120.59292, 16.42019],
          [120.59271, 16.42022],
          [120.59257, 16.42027],
          [120.59247, 16.42033],
          [120.59242, 16.42038],
          [120.59239, 16.42045],
          [120.59237, 16.42051],
          [120.59238, 16.42058],
          [120.5924, 16.42073],
          [120.59247, 16.4209],
          [120.59249, 16.421],
          [120.59249, 16.42104],
          [120.59248, 16.42113],
          [120.59245, 16.4212],
          [120.5924, 16.4213],
          [120.59236, 16.42138],
          [120.59233, 16.42142],
          [120.5923, 16.42144],
          [120.59225, 16.42145],
          [120.59221, 16.42146],
          [120.59212, 16.42147],
          [120.59201, 16.42145],
          [120.59194, 16.42141],
          [120.59187, 16.42134],
          [120.59178, 16.42116],
          [120.5917, 16.42119],
          [120.59163, 16.42124],
          [120.59161, 16.42129],
          [120.59159, 16.42134],
          [120.59157, 16.42141],
          [120.59158, 16.42147],
          [120.59158, 16.42156],
          [120.59158, 16.42169],
          [120.59157, 16.42174],
          [120.59152, 16.42176],
          [120.5913, 16.42176],
          [120.591, 16.42177],
          [120.59097, 16.42166],
          [120.59092, 16.42156],
          [120.59072, 16.42162],
          [120.59055, 16.42171],
          [120.5904, 16.42178],
          [120.59054, 16.42205],
          [120.59064, 16.42221],
          [120.59066, 16.42226],
          [120.59079, 16.42248],
          [120.59093, 16.42269],
          [120.59102, 16.42284],
          [120.59103, 16.42285],
          [120.59114, 16.42303],
          [120.59136, 16.42329],
          [120.5914, 16.42333],
          [120.59144, 16.42337],
          [120.59164, 16.42357],
          [120.59175, 16.42369],
          [120.59183, 16.42393],
          [120.59183, 16.42394],
          [120.59189, 16.42409],
          [120.59195, 16.42429],
          [120.59203, 16.4244],
          [120.59209, 16.4245],
          [120.59228, 16.42455],
          [120.59248, 16.42462],
          [120.59251, 16.42466],
          [120.5926, 16.42475],
          [120.59263, 16.42479],
          [120.59279, 16.42495],
          [120.59293, 16.42507],
          [120.59313, 16.42527],
          [120.59322, 16.42537],
          [120.59343, 16.42555],
          [120.59353, 16.4256],
          [120.59371, 16.42571],
          [120.59385, 16.42583],
          [120.59394, 16.42592],
          [120.59404, 16.42606],
          [120.59409, 16.42616],
          [120.59412, 16.42627],
          [120.59414, 16.42637],
          [120.59416, 16.42666],
          [120.59418, 16.42671],
          [120.59418, 16.42678],
          [120.59418, 16.42687],
          [120.59418, 16.42697],
          [120.59418, 16.42707],
          [120.59418, 16.42713],
          [120.59417, 16.42724],
          [120.59414, 16.42729],
          [120.59411, 16.42779],
          [120.59411, 16.42788],
          [120.5941, 16.42809],
          [120.59413, 16.42822],
          [120.59419, 16.42834],
          [120.59424, 16.42841],
          [120.59431, 16.42847],
          [120.59446, 16.42858],
          [120.59499, 16.42899],
          [120.59572, 16.42954],
          [120.59592, 16.42972],
          [120.59601, 16.42981],
          [120.59626, 16.43006],
          [120.59636, 16.43015],
          [120.59639, 16.43018],
          [120.59658, 16.43039],
          [120.59724, 16.43117],
          [120.59743, 16.43139],
          [120.59749, 16.4315],
          [120.5975, 16.43158],
          [120.59749, 16.43168],
          [120.59744, 16.43176],
          [120.59733, 16.43197],
          [120.59725, 16.43213],
          [120.59718, 16.43226],
          [120.59715, 16.43235],
          [120.59713, 16.43244],
          [120.59713, 16.43253],
          [120.59713, 16.43303],
          [120.59711, 16.43316],
          [120.59711, 16.43322],
          [120.59707, 16.43336],
          [120.59703, 16.43349],
          [120.59693, 16.43371],
          [120.59688, 16.43382],
          [120.59675, 16.43415],
          [120.59666, 16.4343],
          [120.59656, 16.43444],
          [120.59647, 16.43455],
          [120.59638, 16.43463],
          [120.59627, 16.43471],
          [120.59609, 16.43482],
          [120.59588, 16.43496],
          [120.59581, 16.43505],
          [120.59575, 16.43516],
          [120.59565, 16.43544],
          [120.59559, 16.43562],
          [120.59548, 16.43599],
          [120.59539, 16.43643],
          [120.59532, 16.43675],
          [120.59527, 16.43693],
          [120.59514, 16.43725],
          [120.59496, 16.43762],
          [120.5948, 16.43808],
          [120.59478, 16.43818],
          [120.59477, 16.43823],
          [120.59475, 16.43834],
          [120.59474, 16.43839],
          [120.59465, 16.43906],
          [120.59464, 16.43917],
          [120.59464, 16.43925],
          [120.59464, 16.43939],
          [120.59467, 16.43956],
          [120.5947, 16.43965],
          [120.59473, 16.43976],
          [120.59477, 16.43985],
          [120.59479, 16.43997],
          [120.59482, 16.44005],
          [120.59483, 16.44013],
          [120.59479, 16.44027],
          [120.59475, 16.44035],
          [120.5947, 16.44044],
          [120.59465, 16.4405],
          [120.59458, 16.44057],
          [120.5944, 16.44071],
          [120.59438, 16.44073],
          [120.59406, 16.44095],
          [120.59375, 16.44115],
          [120.5937, 16.44119],
          [120.59368, 16.44122],
          [120.59361, 16.44129],
          [120.59356, 16.44138],
          [120.59354, 16.44146],
          [120.59351, 16.44151],
          [120.59338, 16.44168],
          [120.59315, 16.442],
          [120.59311, 16.44207],
          [120.59294, 16.4423],
          [120.59286, 16.44242],
          [120.59273, 16.4426],
          [120.59249, 16.44299],
          [120.59242, 16.4431],
          [120.59224, 16.44337],
          [120.59222, 16.44341],
          [120.59197, 16.44383],
          [120.59188, 16.444],
          [120.59176, 16.44419],
          [120.59173, 16.44427],
          [120.59171, 16.44433],
          [120.59166, 16.44447],
          [120.59163, 16.44462],
          [120.59157, 16.44492],
          [120.59152, 16.44514],
          [120.5915, 16.44524],
          [120.59148, 16.44535],
          [120.59141, 16.44564],
          [120.59136, 16.44582],
          [120.59133, 16.44591],
          [120.59105, 16.44683],
          [120.59075, 16.44744],
          [120.59073, 16.44748],
          [120.59064, 16.44765],
          [120.59063, 16.44767],
          [120.59059, 16.44773],
          [120.59057, 16.44778],
          [120.59054, 16.44784],
          [120.59049, 16.4478],
          [120.59038, 16.44772],
          [120.59034, 16.44769],
          [120.58992, 16.44732],
          [120.58987, 16.44727],
          [120.58984, 16.44725],
          [120.58984, 16.44722],
          [120.58983, 16.44721],
          [120.58982, 16.4472],
          [120.58954, 16.44694],
          [120.58945, 16.44687],
          [120.58938, 16.44682],
          [120.58934, 16.4468],
          [120.58927, 16.44676],
          [120.58916, 16.44671],
          [120.58902, 16.44665],
          [120.58866, 16.4465],
          [120.5886, 16.44647],
          [120.58848, 16.44641],
          [120.58835, 16.44635],
          [120.5881, 16.44623],
          [120.58807, 16.44622],
          [120.58797, 16.44617],
          [120.58795, 16.44616],
          [120.58783, 16.44611],
          [120.58779, 16.44608],
          [120.58758, 16.44596],
          [120.58756, 16.44595],
          [120.58755, 16.44594],
          [120.58749, 16.44591],
          [120.58739, 16.44586],
          [120.5873, 16.4458],
          [120.58724, 16.44577],
          [120.58719, 16.44574],
          [120.5869, 16.44558],
          [120.58676, 16.44551],
          [120.5866, 16.44542],
          [120.58647, 16.44536],
          [120.58618, 16.44529],
          [120.5862, 16.44513],
          [120.58621, 16.44496],
          [120.58621, 16.44492],
          [120.5862, 16.44486],
          [120.5862, 16.44481],
          [120.58623, 16.44459],
          [120.58623, 16.44453],
          [120.58626, 16.44436],
          [120.58632, 16.44412],
          [120.58633, 16.44409],
          [120.58634, 16.44406],
          [120.58637, 16.44401],
          [120.58639, 16.44397],
          [120.5864, 16.44396],
          [120.58643, 16.44391],
          [120.58644, 16.44389],
          [120.58647, 16.44384],
          [120.58668, 16.44359],
          [120.5868, 16.4435],
          [120.58686, 16.44366],
          [120.58687, 16.44374],
          [120.58708, 16.44387],
          [120.58712, 16.44396],
          [120.58722, 16.44421],
          [120.58728, 16.44426],
          [120.58737, 16.4443],
          [120.58793, 16.44434],
          [120.58737, 16.4443],
          [120.58728, 16.44426],
          [120.58722, 16.44421],
          [120.58712, 16.44396],
          [120.58708, 16.44387],
          [120.58687, 16.44374],
          [120.58686, 16.44366],
          [120.5868, 16.4435],
          [120.58668, 16.44359],
          [120.58647, 16.44384],
          [120.58644, 16.44389],
          [120.58643, 16.44391],
          [120.5864, 16.44396],
          [120.58639, 16.44397],
          [120.58637, 16.44401],
          [120.58634, 16.44406],
          [120.58633, 16.44409],
          [120.58632, 16.44412],
          [120.58626, 16.44436],
          [120.58623, 16.44453],
          [120.58623, 16.44459],
          [120.5862, 16.44481],
          [120.5862, 16.44486],
          [120.58621, 16.44492],
          [120.58621, 16.44496],
          [120.5862, 16.44513],
          [120.58618, 16.44529],
          [120.58647, 16.44536],
          [120.5866, 16.44542],
          [120.58676, 16.44551],
          [120.5869, 16.44558],
          [120.58719, 16.44574],
          [120.58724, 16.44577],
          [120.5873, 16.4458],
          [120.58739, 16.44586],
          [120.58749, 16.44591],
          [120.58755, 16.44594],
          [120.58756, 16.44595],
          [120.58758, 16.44596],
          [120.58779, 16.44608],
          [120.58783, 16.44611],
          [120.58795, 16.44616],
          [120.58797, 16.44617],
          [120.58807, 16.44622],
          [120.5881, 16.44623],
          [120.58805, 16.44634],
          [120.58802, 16.44643],
          [120.58792, 16.4467],
          [120.58784, 16.44686],
          [120.58783, 16.44692],
          [120.58782, 16.44696],
          [120.58781, 16.44701],
          [120.58781, 16.44703],
          [120.5878, 16.44709],
          [120.58778, 16.44717],
          [120.58775, 16.44736],
          [120.58771, 16.4475],
          [120.58767, 16.44765],
          [120.58766, 16.4477],
          [120.58765, 16.44772],
          [120.58786, 16.44776],
          [120.58796, 16.44784],
          [120.58796, 16.44793],
          [120.58795, 16.44796],
          [120.58796, 16.44793],
          [120.58796, 16.44784],
          [120.58786, 16.44776],
          [120.58765, 16.44772],
          [120.58766, 16.4477],
          [120.58767, 16.44765],
          [120.58771, 16.4475],
          [120.58775, 16.44736],
          [120.58778, 16.44717],
          [120.5878, 16.44709],
          [120.58781, 16.44703],
          [120.58781, 16.44701],
          [120.58782, 16.44696],
          [120.58783, 16.44692],
          [120.58784, 16.44686],
          [120.58792, 16.4467],
          [120.58802, 16.44643],
          [120.58805, 16.44634],
          [120.5881, 16.44623],
          [120.58835, 16.44635],
          [120.58848, 16.44641],
          [120.5886, 16.44647],
          [120.58866, 16.4465],
          [120.58902, 16.44665],
          [120.58916, 16.44671],
          [120.58927, 16.44676],
          [120.58934, 16.4468],
          [120.58938, 16.44682],
          [120.58945, 16.44687],
          [120.58954, 16.44694],
          [120.58982, 16.4472],
          [120.58983, 16.44721],
          [120.58987, 16.44722],
          [120.58991, 16.44723],
          [120.58993, 16.44725],
          [120.59038, 16.44763],
          [120.59052, 16.44775],
          [120.59057, 16.44778],
          [120.59054, 16.44784],
          [120.59051, 16.44794],
          [120.5905, 16.44801],
          [120.59056, 16.44922],
          [120.59053, 16.44931],
          [120.59053, 16.44956],
          [120.59051, 16.44974],
          [120.59048, 16.44985],
          [120.59044, 16.45004],
          [120.59041, 16.45017],
          [120.59041, 16.4502],
          [120.59035, 16.45046],
          [120.59028, 16.45081],
          [120.59025, 16.45095],
          [120.59022, 16.45108],
          [120.5902, 16.45122],
          [120.59016, 16.4514],
          [120.59014, 16.4515],
          [120.58998, 16.45208],
          [120.58995, 16.45219],
          [120.58995, 16.45222],
          [120.58982, 16.45273],
          [120.58953, 16.45264],
          [120.58948, 16.45262],
          [120.58928, 16.45254],
          [120.58902, 16.45243],
          [120.58865, 16.45225],
          [120.58836, 16.45208],
          [120.58823, 16.45202],
          [120.58814, 16.45199],
          [120.58812, 16.45198],
          [120.58795, 16.45192],
          [120.58783, 16.45188],
          [120.58774, 16.45185],
          [120.58756, 16.45179],
          [120.58737, 16.45173],
          [120.58735, 16.45188],
          [120.58734, 16.45201],
          [120.58733, 16.45223],
          [120.58746, 16.45225],
          [120.58749, 16.45225],
          [120.5875, 16.45224],
          [120.58752, 16.45222],
          [120.58754, 16.45209],
          [120.58752, 16.45222],
          [120.5875, 16.45224],
          [120.58749, 16.45225],
          [120.58746, 16.45225],
          [120.58733, 16.45223],
          [120.58734, 16.45201],
          [120.58735, 16.45188],
          [120.58737, 16.45173],
          [120.58756, 16.45179],
          [120.58774, 16.45185],
          [120.58783, 16.45188],
          [120.58795, 16.45192],
          [120.58812, 16.45198],
          [120.58814, 16.45199],
          [120.58823, 16.45202],
          [120.58836, 16.45208],
          [120.58865, 16.45225],
          [120.58902, 16.45243],
          [120.58928, 16.45254],
          [120.58948, 16.45262],
          [120.58953, 16.45264],
          [120.58982, 16.45273],
          [120.58977, 16.45299],
          [120.58976, 16.45304],
          [120.58971, 16.45328],
          [120.58962, 16.45372],
          [120.58961, 16.45376],
          [120.58956, 16.45396],
          [120.5895, 16.45424],
          [120.58944, 16.45455],
          [120.58941, 16.45467],
          [120.58939, 16.45474],
          [120.5893, 16.45524],
          [120.58929, 16.45528],
          [120.58927, 16.45538],
          [120.58924, 16.45556],
          [120.58921, 16.45576],
          [120.58917, 16.45595],
          [120.58917, 16.45598],
          [120.58915, 16.4561],
          [120.58913, 16.45619],
          [120.58908, 16.45642],
          [120.58903, 16.45666],
          [120.58896, 16.45701],
          [120.58867, 16.45839],
          [120.58864, 16.45853],
          [120.58789, 16.45804],
          [120.58784, 16.458],
          [120.58775, 16.45794],
          [120.58711, 16.45751],
          [120.58703, 16.45745],
          [120.58695, 16.45737],
          [120.5869, 16.45727],
          [120.58649, 16.4565],
          [120.58631, 16.4562],
          [120.5862, 16.45603],
          [120.58612, 16.45589],
          [120.58618, 16.45587],
          [120.58622, 16.45587],
          [120.58626, 16.45587],
          [120.58629, 16.45587],
          [120.5863, 16.45587],
          [120.58634, 16.45585],
          [120.58653, 16.45569],
          [120.58657, 16.45567],
          [120.58661, 16.45566],
          [120.58667, 16.45567],
          [120.58698, 16.45574],
          [120.58667, 16.45567],
          [120.58661, 16.45566],
          [120.58657, 16.45567],
          [120.58653, 16.45569],
          [120.58634, 16.45585],
          [120.5863, 16.45587],
          [120.58629, 16.45587],
          [120.58626, 16.45587],
          [120.58622, 16.45587],
          [120.58618, 16.45587],
          [120.58612, 16.45589],
          [120.5862, 16.45603],
          [120.58631, 16.4562],
          [120.58649, 16.4565],
          [120.5869, 16.45727],
          [120.58695, 16.45737],
          [120.58703, 16.45745],
          [120.58711, 16.45751],
          [120.58775, 16.45794],
          [120.58784, 16.458],
          [120.58789, 16.45804],
          [120.58864, 16.45853],
          [120.58863, 16.45859],
          [120.58862, 16.45865],
          [120.58855, 16.45898],
          [120.58854, 16.45902],
          [120.58847, 16.45936],
          [120.58841, 16.45966],
          [120.5883, 16.46019],
          [120.58825, 16.4604],
          [120.58822, 16.46052],
          [120.58805, 16.46047],
          [120.58766, 16.4603],
          [120.58756, 16.46027],
          [120.58747, 16.46026],
          [120.58736, 16.46027],
          [120.58725, 16.46031],
          [120.58717, 16.46032],
          [120.58708, 16.46033],
          [120.58703, 16.46032],
          [120.58708, 16.46033],
          [120.58717, 16.46032],
          [120.58725, 16.46031],
          [120.58736, 16.46027],
          [120.58747, 16.46026],
          [120.58756, 16.46027],
          [120.58766, 16.4603],
          [120.58805, 16.46047],
          [120.58822, 16.46052],
          [120.58813, 16.46093],
          [120.58812, 16.46096],
          [120.58809, 16.46107],
          [120.58804, 16.46129],
          [120.58804, 16.46131],
          [120.588, 16.46153],
          [120.58799, 16.46156],
          [120.58796, 16.46171],
          [120.58791, 16.46193],
          [120.5879, 16.462],
          [120.58816, 16.46215],
          [120.58822, 16.46224],
          [120.58827, 16.46229],
          [120.58832, 16.46232],
          [120.58837, 16.46234],
          [120.58846, 16.46242],
          [120.58851, 16.46248],
          [120.58854, 16.46254],
          [120.58855, 16.46263],
          [120.58852, 16.4627],
          [120.58847, 16.46275],
          [120.58836, 16.46282],
          [120.5882, 16.46285],
          [120.58808, 16.46289],
          [120.58799, 16.46296],
          [120.58792, 16.46305],
          [120.58786, 16.46313],
          [120.58781, 16.46322],
          [120.58777, 16.46334],
          [120.58768, 16.46347],
          [120.5876, 16.46353],
          [120.58749, 16.46357],
          [120.58735, 16.4636],
          [120.58718, 16.46361],
          [120.58699, 16.46364],
          [120.58689, 16.46367]
        ]
      },
      "properties": {
        "code": "PLZ-LTR",
        "name": "Plaza - La Trinidad",
        "kind": "JEEPNEY",
        "fareBase": 13,
        "farePerKm": 1.8,
        "stops": [
          {
            "name": "City Plaza Terminal",
            "seq": 1,
            "coord": [120.59676, 16.41076]
          },
          {
            "name": "Magsaysay Avenue",
            "seq": 2,
            "coord": [120.59249, 16.421]
          },
          {
            "name": "Km 4",
            "seq": 3,
            "coord": [120.58949, 16.4333]
          },
          {
            "name": "Km 5 Pico",
            "seq": 4,
            "coord": [120.58793, 16.44434]
          },
          {
            "name": "La Trinidad Trading Post",
            "seq": 5,
            "coord": [120.58698, 16.45574]
          },
          {
            "name": "Strawberry Farms",
            "seq": 6,
            "coord": [120.58689, 16.46367]
          }
        ]
      }
    },
    {
      "type": "Feature",
      "geometry": {
        "type": "LineString",
        "coordinates": [
          [120.59676, 16.41076],
          [120.59632, 16.41033],
          [120.59626, 16.41027],
          [120.5962, 16.41033],
          [120.5961, 16.41043],
          [120.59607, 16.41046],
          [120.59591, 16.41061],
          [120.59525, 16.41125],
          [120.5952, 16.4113],
          [120.59452, 16.41195],
          [120.59452, 16.41195],
          [120.59439, 16.41207],
          [120.59434, 16.41212],
          [120.59414, 16.41231],
          [120.59398, 16.41248],
          [120.59395, 16.41255],
          [120.59391, 16.41259],
          [120.59386, 16.41266],
          [120.59379, 16.41271],
          [120.59372, 16.41272],
          [120.59345, 16.41272],
          [120.59323, 16.4127],
          [120.59317, 16.41269],
          [120.59312, 16.41267],
          [120.59305, 16.41263],
          [120.59299, 16.41258],
          [120.59289, 16.41248],
          [120.59286, 16.41245],
          [120.59279, 16.41238],
          [120.59271, 16.41229],
          [120.5927, 16.41227],
          [120.5927, 16.41226],
          [120.59268, 16.41222],
          [120.59267, 16.41217],
          [120.59266, 16.412],
          [120.59266, 16.41193],
          [120.59259, 16.41192],
          [120.5924, 16.41192],
          [120.59228, 16.41192],
          [120.59221, 16.41192],
          [120.59212, 16.41192],
          [120.59188, 16.41192],
          [120.59163, 16.41192],
          [120.59158, 16.41192],
          [120.5915, 16.41192],
          [120.59142, 16.41192],
          [120.59138, 16.41192],
          [120.59133, 16.41192],
          [120.591, 16.41192],
          [120.59079, 16.41193],
          [120.59071, 16.41193],
          [120.59058, 16.41193],
          [120.5903, 16.41194],
          [120.59019, 16.41213],
          [120.59001, 16.41246],
          [120.58985, 16.41277],
          [120.58973, 16.41294],
          [120.58961, 16.41309],
          [120.58946, 16.41321],
          [120.58934, 16.4133],
          [120.58913, 16.41346],
          [120.58902, 16.41353],
          [120.58889, 16.41359],
          [120.58872, 16.41366],
          [120.58857, 16.4137],
          [120.58844, 16.41372],
          [120.58828, 16.41374],
          [120.58819, 16.41373],
          [120.58793, 16.41355],
          [120.58784, 16.41343],
          [120.5878, 16.41333],
          [120.58771, 16.4131],
          [120.58767, 16.41305],
          [120.58762, 16.41301],
          [120.5875, 16.41295],
          [120.58744, 16.41292],
          [120.58735, 16.41288],
          [120.58727, 16.41284],
          [120.58725, 16.4128],
          [120.58723, 16.41274],
          [120.58722, 16.41254],
          [120.58721, 16.4124],
          [120.5872, 16.41234],
          [120.58713, 16.41225],
          [120.58661, 16.4118],
          [120.58657, 16.41176],
          [120.5865, 16.41169],
          [120.58615, 16.41137],
          [120.586, 16.41123],
          [120.58591, 16.41116],
          [120.58586, 16.41112],
          [120.5858, 16.41111],
          [120.58576, 16.41112],
          [120.58566, 16.41115],
          [120.58532, 16.41129],
          [120.58525, 16.41131],
          [120.58518, 16.4113],
          [120.58511, 16.4113],
          [120.58506, 16.41129],
          [120.58487, 16.41125],
          [120.58462, 16.41121],
          [120.58446, 16.41118],
          [120.5844, 16.41117],
          [120.58419, 16.41114],
          [120.58405, 16.41115],
          [120.58397, 16.41118],
          [120.58391, 16.41122],
          [120.58382, 16.41131],
          [120.58371, 16.41146],
          [120.58334, 16.41179],
          [120.58314, 16.41195],
          [120.58292, 16.4121],
          [120.58288, 16.41212],
          [120.5828, 16.41213],
          [120.58271, 16.41213],
          [120.58258, 16.41214],
          [120.58255, 16.41214],
          [120.58247, 16.41218],
          [120.58244, 16.4121],
          [120.58228, 16.41181],
          [120.58217, 16.41163],
          [120.58204, 16.41143],
          [120.58177, 16.41117],
          [120.58166, 16.41102],
          [120.58165, 16.411],
          [120.58162, 16.41095],
          [120.58146, 16.41065],
          [120.58141, 16.41047],
          [120.58139, 16.41039],
          [120.5814, 16.41027],
          [120.58145, 16.41007],
          [120.58156, 16.40984],
          [120.58166, 16.40971],
          [120.58175, 16.40963],
          [120.58187, 16.40955],
          [120.58199, 16.40947],
          [120.58237, 16.40932],
          [120.58251, 16.40922],
          [120.5826, 16.40915],
          [120.58289, 16.40903],
          [120.58277, 16.40893],
          [120.58269, 16.40887],
          [120.58261, 16.40891],
          [120.5825, 16.40897],
          [120.58244, 16.40903],
          [120.5824, 16.40906],
          [120.58229, 16.40914],
          [120.58218, 16.40919],
          [120.58205, 16.40924],
          [120.58194, 16.40926],
          [120.58191, 16.40927],
          [120.58178, 16.40931],
          [120.58156, 16.40945],
          [120.58133, 16.40966],
          [120.58117, 16.40982],
          [120.58105, 16.40997],
          [120.58097, 16.41007],
          [120.58089, 16.41017],
          [120.58081, 16.41022],
          [120.58073, 16.41022],
          [120.58067, 16.41019],
          [120.58065, 16.41014],
          [120.58065, 16.41009],
          [120.58067, 16.41005],
          [120.58075, 16.40996],
          [120.58081, 16.40991],
          [120.58083, 16.40989],
          [120.58085, 16.40988],
          [120.58093, 16.40979],
          [120.58105, 16.40963],
          [120.58106, 16.4096],
          [120.58105, 16.40956],
          [120.58104, 16.40955],
          [120.58102, 16.40954],
          [120.58099, 16.40954],
          [120.58097, 16.40956],
          [120.58085, 16.40968],
          [120.58074, 16.40978],
          [120.58065, 16.40983],
          [120.58058, 16.40985],
          [120.58051, 16.40987],
          [120.5803, 16.40991],
          [120.58007, 16.40998],
          [120.58005, 16.40999],
          [120.58003, 16.40999],
          [120.58001, 16.40998],
          [120.57998, 16.40996],
          [120.57997, 16.40994],
          [120.57998, 16.40992],
          [120.58002, 16.40989],
          [120.58015, 16.40986],
          [120.58027, 16.40982],
          [120.58039, 16.40974],
          [120.58052, 16.40961],
          [120.58053, 16.40959],
          [120.5806, 16.40954],
          [120.58079, 16.40939],
          [120.58087, 16.40933],
          [120.58088, 16.40928],
          [120.58088, 16.40923],
          [120.58086, 16.40918],
          [120.58079, 16.40926],
          [120.58071, 16.40932],
          [120.58067, 16.40928],
          [120.58061, 16.40924],
          [120.58052, 16.40915],
          [120.58049, 16.40917],
          [120.58045, 16.4092],
          [120.58035, 16.4093]
        ]
      },
      "properties": {
        "code": "PLZ-LDS",
        "name": "Plaza - Lourdes Grotto / Dominican Hill",
        "kind": "JEEPNEY",
        "fareBase": 13,
        "farePerKm": 1.8,
        "stops": [
          {
            "name": "City Plaza Terminal",
            "seq": 1,
            "coord": [120.59676, 16.41076]
          },
          {
            "name": "Kayang Street",
            "seq": 2,
            "coord": [120.5924, 16.41192]
          },
          {
            "name": "Naguilian Road",
            "seq": 3,
            "coord": [120.58821, 16.41111]
          },
          {
            "name": "Lourdes Grotto Foot",
            "seq": 4,
            "coord": [120.58494, 16.41127]
          },
          {
            "name": "Dominican Hill",
            "seq": 5,
            "coord": [120.58035, 16.4093]
          }
        ]
      }
    },
    {
      "type": "Feature",
      "geometry": {
        "type": "LineString",
        "coordinates": [
          [120.59676, 16.41076],
          [120.59705, 16.41103],
          [120.59711, 16.4111],
          [120.59726, 16.41098],
          [120.59729, 16.41094],
          [120.59731, 16.4109],
          [120.59732, 16.41085],
          [120.59743, 16.41087],
          [120.5975, 16.41089],
          [120.59753, 16.4109],
          [120.59756, 16.41091],
          [120.59756, 16.41091],
          [120.59759, 16.41093],
          [120.59763, 16.41096],
          [120.59765, 16.41099],
          [120.59766, 16.41102],
          [120.59767, 16.41105],
          [120.59766, 16.41109],
          [120.59765, 16.41113],
          [120.59744, 16.41133],
          [120.59741, 16.41135],
          [120.59733, 16.41134],
          [120.59731, 16.41145],
          [120.59722, 16.41192],
          [120.59718, 16.4121],
          [120.59718, 16.41212],
          [120.59716, 16.41222],
          [120.59713, 16.4124],
          [120.59707, 16.41268],
          [120.59706, 16.41273],
          [120.59713, 16.4128],
          [120.59763, 16.41237],
          [120.59769, 16.41232],
          [120.59831, 16.41183],
          [120.59835, 16.41179],
          [120.59864, 16.41157],
          [120.59879, 16.41144],
          [120.59886, 16.41143],
          [120.59892, 16.41136],
          [120.59896, 16.41132],
          [120.59912, 16.41115],
          [120.59917, 16.41111],
          [120.59923, 16.4111],
          [120.59932, 16.41101],
          [120.59935, 16.41097],
          [120.59943, 16.41094],
          [120.59949, 16.41093],
          [120.59953, 16.41093],
          [120.59956, 16.41094],
          [120.59959, 16.41097],
          [120.59961, 16.41099],
          [120.59965, 16.41103],
          [120.59965, 16.41112],
          [120.59964, 16.41123],
          [120.59962, 16.4113],
          [120.59959, 16.41142],
          [120.59958, 16.41146],
          [120.59955, 16.41153],
          [120.59951, 16.4116],
          [120.59946, 16.4117],
          [120.5994, 16.41179],
          [120.59929, 16.41195],
          [120.59942, 16.41214],
          [120.59948, 16.41223],
          [120.5995, 16.41227],
          [120.59952, 16.41231],
          [120.59955, 16.41237],
          [120.59961, 16.4125],
          [120.59964, 16.41256],
          [120.59965, 16.41261],
          [120.5997, 16.4127],
          [120.5996, 16.41278],
          [120.59952, 16.41285],
          [120.5993, 16.41305],
          [120.59925, 16.41309],
          [120.59921, 16.41315],
          [120.59924, 16.41322],
          [120.59931, 16.41345],
          [120.59939, 16.41362],
          [120.59943, 16.41368],
          [120.5995, 16.41378],
          [120.59952, 16.41384],
          [120.59953, 16.4139],
          [120.59946, 16.41408],
          [120.59943, 16.41416],
          [120.59942, 16.41424],
          [120.59942, 16.4143],
          [120.59943, 16.41438],
          [120.59945, 16.41444],
          [120.59947, 16.41451],
          [120.59947, 16.41461],
          [120.59945, 16.41468],
          [120.59941, 16.41474],
          [120.59933, 16.41488],
          [120.59929, 16.41498],
          [120.59927, 16.41501],
          [120.59924, 16.41501],
          [120.59918, 16.41499],
          [120.59906, 16.41497],
          [120.59901, 16.41498],
          [120.59895, 16.415],
          [120.59901, 16.41498],
          [120.59906, 16.41497],
          [120.59918, 16.41499],
          [120.59924, 16.41501],
          [120.59927, 16.41501],
          [120.59926, 16.41513],
          [120.59927, 16.41519],
          [120.59928, 16.41528],
          [120.5993, 16.41534],
          [120.59936, 16.41554],
          [120.59939, 16.41561],
          [120.59948, 16.41583],
          [120.59951, 16.4159],
          [120.59952, 16.41596],
          [120.59951, 16.416],
          [120.5995, 16.41603],
          [120.59948, 16.41606],
          [120.59945, 16.41609],
          [120.59938, 16.41615],
          [120.59931, 16.4162],
          [120.59924, 16.41625],
          [120.59913, 16.41633],
          [120.59908, 16.41638],
          [120.59905, 16.41645],
          [120.59904, 16.41651],
          [120.59904, 16.41657],
          [120.59905, 16.41664],
          [120.59905, 16.4167],
          [120.59904, 16.41672],
          [120.59905, 16.4168],
          [120.59903, 16.41682],
          [120.59902, 16.41683],
          [120.59896, 16.41688],
          [120.59879, 16.41694],
          [120.59855, 16.41703],
          [120.59853, 16.41704],
          [120.5985, 16.41707],
          [120.59848, 16.4171],
          [120.59847, 16.41713],
          [120.59848, 16.41718],
          [120.5985, 16.41723],
          [120.5986, 16.41734],
          [120.59863, 16.41737],
          [120.59875, 16.4175],
          [120.59879, 16.41757],
          [120.59882, 16.41764],
          [120.59883, 16.41771],
          [120.59884, 16.41777],
          [120.59884, 16.41781],
          [120.5988, 16.41803],
          [120.59878, 16.41823],
          [120.59875, 16.4183],
          [120.59871, 16.41836],
          [120.59865, 16.41847],
          [120.59855, 16.41861],
          [120.59849, 16.4187],
          [120.59844, 16.41879],
          [120.59819, 16.41911],
          [120.59809, 16.41925],
          [120.59807, 16.41927],
          [120.59806, 16.41929],
          [120.59805, 16.41932],
          [120.59804, 16.41936],
          [120.59804, 16.41941],
          [120.59813, 16.41935],
          [120.59817, 16.41931],
          [120.59822, 16.41927],
          [120.59828, 16.41923],
          [120.59836, 16.41918],
          [120.59839, 16.41916],
          [120.59846, 16.41912],
          [120.59854, 16.4191],
          [120.59859, 16.41909],
          [120.59865, 16.41909],
          [120.5987, 16.41911],
          [120.59874, 16.41915],
          [120.59877, 16.4192],
          [120.5988, 16.41929],
          [120.59884, 16.4195],
          [120.59892, 16.41989],
          [120.59896, 16.42004],
          [120.599, 16.42017],
          [120.59905, 16.42028],
          [120.59911, 16.4204],
          [120.59919, 16.42053],
          [120.59942, 16.42082],
          [120.5995, 16.42093],
          [120.59955, 16.42099],
          [120.59958, 16.42102],
          [120.59959, 16.42103],
          [120.59968, 16.42115],
          [120.59976, 16.42124],
          [120.59985, 16.42133],
          [120.60009, 16.42159],
          [120.60012, 16.42156],
          [120.60028, 16.42142],
          [120.60044, 16.42127],
          [120.6006, 16.42114],
          [120.60075, 16.42103],
          [120.60085, 16.42096],
          [120.60096, 16.4209],
          [120.6011, 16.42081],
          [120.60135, 16.42067],
          [120.60153, 16.42059],
          [120.60172, 16.42048],
          [120.60184, 16.42041],
          [120.60203, 16.42029],
          [120.60205, 16.42028],
          [120.60218, 16.42021],
          [120.60242, 16.42008],
          [120.60261, 16.41999],
          [120.60266, 16.41997],
          [120.60271, 16.41995],
          [120.60274, 16.41995],
          [120.60279, 16.41995],
          [120.60283, 16.41995],
          [120.60286, 16.41996],
          [120.60289, 16.41997],
          [120.60291, 16.41999],
          [120.60294, 16.42002],
          [120.60296, 16.42005],
          [120.60297, 16.42008],
          [120.60298, 16.42016],
          [120.60297, 16.42025],
          [120.60297, 16.42032],
          [120.60295, 16.42035],
          [120.60293, 16.42039],
          [120.60291, 16.42041],
          [120.60285, 16.42044],
          [120.60278, 16.42048],
          [120.60271, 16.42052],
          [120.60267, 16.42055],
          [120.60263, 16.4206],
          [120.6026, 16.42065],
          [120.60258, 16.42071],
          [120.60257, 16.42078],
          [120.60258, 16.42083],
          [120.60258, 16.42084],
          [120.60255, 16.42097],
          [120.60253, 16.42109],
          [120.60255, 16.42097],
          [120.60258, 16.42084],
          [120.6026, 16.4209],
          [120.60263, 16.42094],
          [120.60268, 16.42099],
          [120.60272, 16.42103],
          [120.60278, 16.42107],
          [120.60285, 16.42111],
          [120.60298, 16.42114],
          [120.60309, 16.42116],
          [120.6032, 16.42116],
          [120.60329, 16.42116],
          [120.60338, 16.42115],
          [120.60346, 16.42113],
          [120.60353, 16.4211],
          [120.60362, 16.42103],
          [120.60372, 16.42097],
          [120.60384, 16.42093],
          [120.60397, 16.42089],
          [120.60404, 16.42087],
          [120.60414, 16.42085],
          [120.60422, 16.42082],
          [120.60427, 16.42078],
          [120.60431, 16.42074],
          [120.60436, 16.42069],
          [120.6044, 16.42067],
          [120.60445, 16.42066],
          [120.60449, 16.42067],
          [120.60463, 16.42069],
          [120.60472, 16.42069],
          [120.60488, 16.42068],
          [120.605, 16.42067],
          [120.60509, 16.42067],
          [120.60514, 16.42068],
          [120.60518, 16.4207],
          [120.60521, 16.42075],
          [120.60526, 16.42083],
          [120.6053, 16.42091],
          [120.60524, 16.42089],
          [120.60511, 16.42089],
          [120.60498, 16.4209],
          [120.60491, 16.42095],
          [120.60485, 16.42104],
          [120.60477, 16.42116],
          [120.60471, 16.42129],
          [120.60468, 16.42137],
          [120.60465, 16.4215],
          [120.60464, 16.42162],
          [120.60463, 16.42181],
          [120.60461, 16.42195],
          [120.6046, 16.42205],
          [120.60457, 16.42234],
          [120.60454, 16.42245],
          [120.6045, 16.42253],
          [120.60445, 16.42258],
          [120.60438, 16.42264],
          [120.6041, 16.42271],
          [120.60388, 16.42275],
          [120.60383, 16.42276],
          [120.60377, 16.42275],
          [120.60348, 16.42265],
          [120.60348, 16.42265],
          [120.60341, 16.42264],
          [120.60336, 16.42266],
          [120.60333, 16.42269],
          [120.60333, 16.42272],
          [120.60334, 16.42278],
          [120.60365, 16.42322],
          [120.60399, 16.42374],
          [120.60401, 16.42379],
          [120.60401, 16.42384],
          [120.60412, 16.42389],
          [120.60434, 16.42397],
          [120.60441, 16.42399],
          [120.6045, 16.42404],
          [120.60461, 16.42413],
          [120.60467, 16.42419],
          [120.60472, 16.42423],
          [120.60476, 16.42427],
          [120.60495, 16.42444],
          [120.60505, 16.42453],
          [120.6051, 16.42456],
          [120.60515, 16.4246],
          [120.6052, 16.42461],
          [120.60522, 16.4246],
          [120.60524, 16.4246],
          [120.60529, 16.42457],
          [120.60537, 16.42451],
          [120.60557, 16.42432],
          [120.60559, 16.42431],
          [120.60562, 16.42432],
          [120.6057, 16.42434],
          [120.60576, 16.42437],
          [120.60585, 16.4244],
          [120.60602, 16.42446],
          [120.60619, 16.42455],
          [120.60626, 16.4246],
          [120.60635, 16.42466],
          [120.6064, 16.42471],
          [120.60642, 16.42473],
          [120.60647, 16.42479],
          [120.60647, 16.42485],
          [120.60645, 16.42489],
          [120.60641, 16.42494],
          [120.60633, 16.42503],
          [120.60618, 16.42517],
          [120.60611, 16.42524],
          [120.60591, 16.42544],
          [120.60585, 16.42552],
          [120.60583, 16.42556],
          [120.60581, 16.42562],
          [120.60581, 16.42567],
          [120.60581, 16.42573],
          [120.60582, 16.42579],
          [120.60585, 16.42585],
          [120.60594, 16.42601],
          [120.60596, 16.42607],
          [120.60602, 16.42608],
          [120.6063, 16.42618],
          [120.60662, 16.42631],
          [120.60678, 16.42639],
          [120.60704, 16.42655],
          [120.60706, 16.42656],
          [120.60723, 16.4267],
          [120.60752, 16.42692],
          [120.60755, 16.42694],
          [120.6077, 16.42705],
          [120.60793, 16.42713],
          [120.60804, 16.42718],
          [120.60808, 16.4272],
          [120.60814, 16.42723],
          [120.60817, 16.42729],
          [120.60826, 16.42711],
          [120.60836, 16.42689],
          [120.60841, 16.42679],
          [120.60846, 16.42664],
          [120.60847, 16.42659],
          [120.6082, 16.4265]
        ]
      },
      "properties": {
        "code": "PLZ-AUR",
        "name": "Plaza - Aurora Hill",
        "kind": "JEEPNEY",
        "fareBase": 13,
        "farePerKm": 1.8,
        "stops": [
          {
            "name": "City Plaza Terminal",
            "seq": 1,
            "coord": [120.59676, 16.41076]
          },
          {
            "name": "Otek Street",
            "seq": 2,
            "coord": [120.59823, 16.4137]
          },
          {
            "name": "Bonifacio Street",
            "seq": 3,
            "coord": [120.6005, 16.41839]
          },
          {
            "name": "Aurora Hill Proper",
            "seq": 4,
            "coord": [120.60348, 16.42265]
          },
          {
            "name": "Aurora Hill Market",
            "seq": 5,
            "coord": [120.6082, 16.4265]
          }
        ]
      }
    }
  ]
}
